{"type": "FeatureCollection", "features": [ {"type": "Feature", "properties": {"norad_id": 38755, "name": "SPOT 6", "group": "resource", "lat": 34.72639182202964, "lon": 41.10931227434653, "alt_km": 695.100730601016, "timestamp": "2025-12-07T22:37:42.739757+00:00", "meta": {"OBJECT_NAME": "SPOT 6", "OBJECT_ID": "2012-047A", "EPOCH": "2025-12-07T07:39:01.594080", "MEAN_MOTION": 14.58595679, "ECCENTRICITY": 0.00010678, "INCLINATION": 98.1581, "RA_OF_ASC_NODE": 46.2029, "ARG_OF_PERICENTER": 101.8892, "MEAN_ANOMALY": 258.2427, "EPHEMERIS_TYPE": 0, "CLASSIFICATION_TYPE": "U", "NORAD_CAT_ID": 38755, "ELEMENT_SET_NO": 999, "REV_AT_EPOCH": 70508, "BSTAR": 0.00018450242, "MEAN_MOTION_DOT": 8.13e-06, "MEAN_MOTION_DDOT": 0}, "tle": {"line1": "1 38755U 12047A   25341.31876845  .00000813  00000+0  18450-3 0  9991", "line2": "2 38755  98.1581  46.2029 0001067 101.8892 258.2427 14.58595679705087"}}, "geometry": {"type": "Point", "coordinates": [41.10931227434653, 34.72639182202964]}}, {"type": "Feature", "properties": {"norad_id": 39019, "name": "PLEIADES 1B", "group": "resource", "lat": -64.15853680718202, "lon": 71.9482593997466, "alt_km": 705.8242512854731, "timestamp": "2025-12-07T22:37:42.739769+00:00", "meta": {"OBJECT_NAME": "PLEIADES 1B", "OBJECT_ID": "2012-068A", "EPOCH": "2025-12-07T06:27:48.552480", "MEAN_MOTION": 14.58545026, "ECCENTRICITY": 0.00012177, "INCLINATION": 98.1802, "RA_OF_ASC_NODE": 54.0074, "ARG_OF_PERICENTER": 87.159, "MEAN_ANOMALY": 272.9748, "EPHEMERIS_TYPE": 0, "CLASSIFICATION_TYPE": "U", "NORAD_CAT_ID": 39019, "ELEMENT_SET_NO": 999, "REV_AT_EPOCH": 69287, "BSTAR": 0.00019181722, "MEAN_MOTION_DOT": 8.46e-06, "MEAN_MOTION_DDOT": 0}, "tle": {"line1": "1 39019U 12068A   25341.26931195  .00000846  00000+0  19182-3 0  9991", "line2": "2 39019  98.1802  54.0074 0001217  87.1590 272.9748 14.58545026692874"}}, "geometry": {"type": "Point", "coordinates": [71.9482593997466, -64.15853680718202]}}, {"type": "Feature", "properties": {"norad_id": 39030, "name": "GOKTURK 2", "group": "resource", "lat": -41.22863452609761, "lon": -2.968314500657186, "alt_km": 651.170628742585, "timestamp": "2025-12-07T22:37:42.739780+00:00", "meta": {"OBJECT_NAME": "GOKTURK 2", "OBJECT_ID": "2012-073A", "EPOCH": "2025-12-07T05:20:57.105024", "MEAN_MOTION": 14.75279629, "ECCENTRICITY": 8.774e-05, "INCLINATION": 97.6904, "RA_OF_ASC_NODE": 183.1478, "ARG_OF_PERICENTER": 102.762, "MEAN_ANOMALY": 257.3688, "EPHEMERIS_TYPE": 0, "CLASSIFICATION_TYPE": "U", "NORAD_CAT_ID": 39030, "ELEMENT_SET_NO": 999, "REV_AT_EPOCH": 69620, "BSTAR": 0.00018161807, "MEAN_MOTION_DOT": 1.182e-05, "MEAN_MOTION_DDOT": 0}, "tle": {"line1": "1 39030U 12073A   25341.22288316  .00001182  00000+0  18162-3 0  9997", "line2": "2 39030  97.6904 183.1478 0000877 102.7620 257.3688 14.75279629696208"}}, "geometry": {"type": "Point", "coordinates": [-2.968314500657186, -41.22863452609761]}}, {"type": "Feature", "properties": {"norad_id": 39084, "name": "LANDSAT 8", "group": "resource", "lat": 49.72260045734969, "lon": -120.10576552344875, "alt_km": 697.4349933682461, "timestamp": "2025-12-07T22:37:42.739791+00:00", "meta": {"OBJECT_NAME": "LANDSAT 8", "OBJECT_ID": "2013-008A", "EPOCH": "2025-12-07T07:12:13.182912", "MEAN_MOTION": 14.57106079, "ECCENTRICITY": 0.00011297, "INCLINATION": 98.2079, "RA_OF_ASC_NODE": 49.4538, "ARG_OF_PERICENTER": 86.0633, "MEAN_ANOMALY": 274.0695, "EPHEMERIS_TYPE": 0, "CLASSIFICATION_TYPE": "U", "NORAD_CAT_ID": 39084, "ELEMENT_SET_NO": 999, "REV_AT_EPOCH": 66995, "BSTAR": 0.00019621569, "MEAN_MOTION_DOT": 8.39e-06, "MEAN_MOTION_DDOT": 0}, "tle": {"line1": "1 39084U 13008A   25341.30015258  .00000839  00000+0  19622-3 0  9997", "line2": "2 39084  98.2079  49.4538 0001129  86.0633 274.0695 14.57106079669951"}}, "geometry": {"type": "Point", "coordinates": [-120.10576552344875, 49.72260045734969]}}, {"type": "Feature", "properties": {"norad_id": 39086, "name": "SARAL", "group": "resource", "lat": 4.755461573242494, "lon": -13.347352686737683, "alt_km": 783.7939293475292, "timestamp": "2025-12-07T22:37:42.739802+00:00", "meta": {"OBJECT_NAME": "SARAL", "OBJECT_ID": "2013-009A", "EPOCH": "2025-12-07T06:43:47.103456", "MEAN_MOTION": 14.327542, "ECCENTRICITY": 0.00027444, "INCLINATION": 98.5505, "RA_OF_ASC_NODE": 165.282, "ARG_OF_PERICENTER": 118.9579, "MEAN_ANOMALY": 241.188, "EPHEMERIS_TYPE": 0, "CLASSIFICATION_TYPE": "U", "NORAD_CAT_ID": 39086, "ELEMENT_SET_NO": 999, "REV_AT_EPOCH": 66812, "BSTAR": 0.00011338664, "MEAN_MOTION_DOT": 2.65e-06, "MEAN_MOTION_DDOT": 0}, "tle": {"line1": "1 39086U 13009A   25341.28040629  .00000265  00000+0  11339-3 0  9997", "line2": "2 39086  98.5505 165.2820 0002744 118.9579 241.1880 14.32754200668126"}}, "geometry": {"type": "Point", "coordinates": [-13.347352686737683, 4.755461573242494]}}, {"type": "Feature", "properties": {"norad_id": 39150, "name": "GAOFEN-1", "group": "resource", "lat": -78.56432296061584, "lon": 96.26680386183048, "alt_km": 653.9965779324612, "timestamp": "2025-12-07T22:37:42.739814+00:00", "meta": {"OBJECT_NAME": "GAOFEN-1", "OBJECT_ID": "2013-018A", "EPOCH": "2025-12-07T06:44:06.443232", "MEAN_MOTION": 14.76519558, "ECCENTRICITY": 0.00179165, "INCLINATION": 97.9333, "RA_OF_ASC_NODE": 52.0363, "ARG_OF_PERICENTER": 160.1078, "MEAN_ANOMALY": 200.0834, "EPHEMERIS_TYPE": 0, "CLASSIFICATION_TYPE": "U", "NORAD_CAT_ID": 39150, "ELEMENT_SET_NO": 999, "REV_AT_EPOCH": 67992, "BSTAR": 0.00023129079, "MEAN_MOTION_DOT": 1.565e-05, "MEAN_MOTION_DDOT": 0}, "tle": {"line1": "1 39150U 13018A   25341.28063013  .00001565  00000+0  23129-3 0  9995", "line2": "2 39150  97.9333  52.0363 0017916 160.1078 200.0834 14.76519558679921"}}, "geometry": {"type": "Point", "coordinates": [96.26680386183048, -78.56432296061584]}}, {"type": "Feature", "properties": {"norad_id": 39160, "name": "VNREDSAT 1", "group": "resource", "lat": -0.9366364511984631, "lon": -142.74490204582713, "alt_km": 680.6364384881163, "timestamp": "2025-12-07T22:37:42.739824+00:00", "meta": {"OBJECT_NAME": "VNREDSAT 1", "OBJECT_ID": "2013-021B", "EPOCH": "2025-12-07T07:03:07.344000", "MEAN_MOTION": 14.64910667, "ECCENTRICITY": 0.00013171, "INCLINATION": 97.9381, "RA_OF_ASC_NODE": 36.7595, "ARG_OF_PERICENTER": 83.0367, "MEAN_ANOMALY": 277.0986, "EPHEMERIS_TYPE": 0, "CLASSIFICATION_TYPE": "U", "NORAD_CAT_ID": 39160, "ELEMENT_SET_NO": 999, "REV_AT_EPOCH": 67219, "BSTAR": 0.00025911027, "MEAN_MOTION_DOT": 1.34e-05, "MEAN_MOTION_DDOT": 0}, "tle": {"line1": "1 39160U 13021B   25341.29383500  .00001340  00000+0  25911-3 0  9999", "line2": "2 39160  97.9381  36.7595 0001317  83.0367 277.0986 14.64910667672190"}}, "geometry": {"type": "Point", "coordinates": [-142.74490204582713, -0.9366364511984631]}}, {"type": "Feature", "properties": {"norad_id": 39227, "name": "ARIRANG-5 (KOMPSAT-5)", "group": "resource", "lat": -62.34165879400865, "lon": -178.89468015339864, "alt_km": 562.0239539202303, "timestamp": "2025-12-07T22:37:42.739835+00:00", "meta": {"OBJECT_NAME": "ARIRANG-5 (KOMPSAT-5)", "OBJECT_ID": "2013-042A", "EPOCH": "2025-12-07T06:56:52.070784", "MEAN_MOTION": 15.0452492, "ECCENTRICITY": 0.00039081, "INCLINATION": 97.6149, "RA_OF_ASC_NODE": 165.6717, "ARG_OF_PERICENTER": 72.5059, "MEAN_ANOMALY": 287.6594, "EPHEMERIS_TYPE": 0, "CLASSIFICATION_TYPE": "U", "NORAD_CAT_ID": 39227, "ELEMENT_SET_NO": 999, "REV_AT_EPOCH": 67500, "BSTAR": 0.00019914922, "MEAN_MOTION_DOT": 2.729e-05, "MEAN_MOTION_DDOT": 0}, "tle": {"line1": "1 39227U 13042A   25341.28949156  .00002729  00000+0  19915-3 0  9999", "line2": "2 39227  97.6149 165.6717 0003908  72.5059 287.6594 15.04524920675003"}}, "geometry": {"type": "Point", "coordinates": [-178.89468015339864, -62.34165879400865]}}, {"type": "Feature", "properties": {"norad_id": 39418, "name": "SKYSAT-A", "group": "resource", "lat": -7.748849095526738, "lon": -148.71760199665317, "alt_km": 529.8935361114936, "timestamp": "2025-12-07T22:37:42.739847+00:00", "meta": {"OBJECT_NAME": "SKYSAT-A", "OBJECT_ID": "2013-066C", "EPOCH": "2025-12-07T02:43:59.981088", "MEAN_MOTION": 15.11539872, "ECCENTRICITY": 0.0020563, "INCLINATION": 97.411, "RA_OF_ASC_NODE": 31.4935, "ARG_OF_PERICENTER": 257.4018, "MEAN_ANOMALY": 102.4913, "EPHEMERIS_TYPE": 0, "CLASSIFICATION_TYPE": "U", "NORAD_CAT_ID": 39418, "ELEMENT_SET_NO": 999, "REV_AT_EPOCH": 65945, "BSTAR": 0.00033284969, "MEAN_MOTION_DOT": 5.607e-05, "MEAN_MOTION_DDOT": 0}, "tle": {"line1": "1 39418U 13066C   25341.11388867  .00005607  00000+0  33285-3 0  9999", "line2": "2 39418  97.4110  31.4935 0020563 257.4018 102.4913 15.11539872659458"}}, "geometry": {"type": "Point", "coordinates": [-148.71760199665317, -7.748849095526738]}}, {"type": "Feature", "properties": {"norad_id": 39419, "name": "DUBAISAT-2", "group": "resource", "lat": 25.824984912959586, "lon": -31.129861571928522, "alt_km": 535.4676419996622, "timestamp": "2025-12-07T22:37:42.739863+00:00", "meta": {"OBJECT_NAME": "DUBAISAT-2", "OBJECT_ID": "2013-066D", "EPOCH": "2025-12-07T06:35:28.885632", "MEAN_MOTION": 15.08274429, "ECCENTRICITY": 0.00110856, "INCLINATION": 97.4441, "RA_OF_ASC_NODE": 331.8506, "ARG_OF_PERICENTER": 340.9155, "MEAN_ANOMALY": 19.1656, "EPHEMERIS_TYPE": 0, "CLASSIFICATION_TYPE": "U", "NORAD_CAT_ID": 39419, "ELEMENT_SET_NO": 999, "REV_AT_EPOCH": 65744, "BSTAR": 0.00053200883, "MEAN_MOTION_DOT": 8.199e-05, "MEAN_MOTION_DDOT": 0}, "tle": {"line1": "1 39419U 13066D   25341.27463988  .00008199  00000+0  53201-3 0  9994", "line2": "2 39419  97.4441 331.8506 0011085 340.9155  19.1656 15.08274429657441"}}, "geometry": {"type": "Point", "coordinates": [-31.129861571928522, 25.824984912959586]}}]}